{
    "links": {
        "self": "http://www.neowsapp.com/rest/v1/neo/3147550?api_key=iIulBulltgU6a56xZRHN4H3l9WmuAYTsLGpBGhQ2"
    },
    "id": "3147550",
    "neo_reference_id": "3147550",
    "name": "(2003 BC44)",
    "designation": "2003 BC44",
    "nasa_jpl_url": "http://ssd.jpl.nasa.gov/sbdb.cgi?sstr=3147550",
    "absolute_magnitude_h": 25.5,
    "estimated_diameter": {
        "kilometers": {
            "estimated_diameter_min": 0.0211132445,
            "estimated_diameter_max": 0.0472106499
        },
        "meters": {
            "estimated_diameter_min": 21.113244479,
            "estimated_diameter_max": 47.2106498806
        },
        "miles": {
            "estimated_diameter_min": 0.0131191578,
            "estimated_diameter_max": 0.0293353287
        },
        "feet": {
            "estimated_diameter_min": 69.2691770164,
            "estimated_diameter_max": 154.8905885541
        }
    },
    "is_potentially_hazardous_asteroid": false,
    "close_approach_data": [
        {
            "close_approach_date": "2003-01-08",
            "close_approach_date_full": "2003-Jan-08 11:17",
            "epoch_date_close_approach": 1042024620000,
            "relative_velocity": {
                "kilometers_per_second": "10.940344087",
                "kilometers_per_hour": "39385.2387132137",
                "miles_per_hour": "24472.4556882188"
            },
            "miss_distance": {
                "astronomical": "0.0538087601",
                "lunar": "20.9316076789",
                "kilometers": "8049675.898300987",
                "miles": "5001836.6649561406"
            },
            "orbiting_body": "Earth"
        }
    ],
    "orbital_data": {
        "orbit_id": "6",
        "orbit_determination_date": "2017-04-06 09:14:23",
        "first_observation_date": "2003-01-29",
        "last_observation_date": "2003-01-31",
        "data_arc_in_days": 2,
        "observations_used": 9,
        "orbit_uncertainty": "9",
        "minimum_orbit_intersection": ".0521375",
        "jupiter_tisserand_invariant": "3.522",
        "epoch_osculation": "2452669.5",
        "eccentricity": ".5563644944238231",
        "semi_major_axis": "2.103675084741224",
        "inclination": "7.069443565157683",
        "ascending_node_longitude": "308.4611196792474",
        "orbital_period": "1114.464969066807",
        "perihelion_distance": ".9332649597871796",
        "perihelion_argument": "120.375801464392",
        "aphelion_distance": "3.274085209695268",
        "perihelion_time": "2452618.553093917845",
        "mean_anomaly": "16.4571222054054",
        "mean_motion": ".3230249581567777",
        "equinox": "J2000",
        "orbit_class": {
            "orbit_class_type": "APO",
            "orbit_class_description": "Near-Earth asteroid orbits which cross the Earth’s orbit similar to that of 1862 Apollo",
            "orbit_class_range": "a (semi-major axis) > 1.0 AU; q (perihelion) < 1.017 AU"
        }
    },
    "is_sentry_object": false
}